[{"OBJECT_NAME":"YAOGAN-25 01B","OBJECT_ID":"2014-080B","EPOCH":"2026-03-09T23:17:16.355616","MEAN_MOTION":13.4542541,"ECCENTRICITY":0.03582156,"INCLINATION":63.3885,"RA_OF_ASC_NODE":206.5248,"ARG_OF_PERICENTER":8.4777,"MEAN_ANOMALY":352.2085,"EPHEMERIS_TYPE":0,"CLASSIFICATION_TYPE":"U","NORAD_CAT_ID":40339,"ELEMENT_SET_NO":999,"REV_AT_EPOCH":55228,"BSTAR":5.3898333e-5,"MEAN_MOTION_DOT":-4.4e-7,"MEAN_MOTION_DDOT":0},{"OBJECT_NAME":"COSMOS 2219","OBJECT_ID":"1992-076A","EPOCH":"2026-03-09T22:41:25.069056","MEAN_MOTION":14.14092616,"ECCENTRICITY":0.0018994,"INCLINATION":71.0635,"RA_OF_ASC_NODE":17.5326,"ARG_OF_PERICENTER":206.7401,"MEAN_ANOMALY":153.2744,"EPHEMERIS_TYPE":0,"CLASSIFICATION_TYPE":"U","NORAD_CAT_ID":22219,"ELEMENT_SET_NO":999,"REV_AT_EPOCH":71841,"BSTAR":8.5176457e-5,"MEAN_MOTION_DOT":1.15e-6,"MEAN_MOTION_DDOT":0}]
